[{"OBJECT_NAME":"STARLINK-31310","OBJECT_ID":"2024-041U","EPOCH":"2026-03-09T00:24:35.411328","MEAN_MOTION":15.27495203,"ECCENTRICITY":0.00031514,"INCLINATION":43.0031,"RA_OF_ASC_NODE":314.9263,"ARG_OF_PERICENTER":243.6579,"MEAN_ANOMALY":116.395,"EPHEMERIS_TYPE":0,"CLASSIFICATION_TYPE":"U","NORAD_CAT_ID":59092,"ELEMENT_SET_NO":999,"REV_AT_EPOCH":11416,"BSTAR":0.00067356117,"MEAN_MOTION_DOT":0.00018272,"MEAN_MOTION_DDOT":0},{"OBJECT_NAME":"COSMOS 2251 DEB","OBJECT_ID":"1993-036RB","EPOCH":"2026-03-09T01:08:04.800192","MEAN_MOTION":15.30699894,"ECCENTRICITY":0.00252965,"INCLINATION":73.7308,"RA_OF_ASC_NODE":76.2904,"ARG_OF_PERICENTER":263.9966,"MEAN_ANOMALY":95.8352,"EPHEMERIS_TYPE":0,"CLASSIFICATION_TYPE":"U","NORAD_CAT_ID":34410,"ELEMENT_SET_NO":999,"REV_AT_EPOCH":91089,"BSTAR":0.003018315,"MEAN_MOTION_DOT":0.00091531,"MEAN_MOTION_DDOT":0}]
